<?xml version="1.0" encoding="utf-8"?>
<kml xmlns="http://www.opengis.net/kml/2.2">
  <Document id="root_doc">
    <Folder>
      <name>download_area</name>
      <Placemark>
        <name>墨林乡</name>
        <Style>
          <LineStyle>
            <color>ff0000ff</color>
          </LineStyle>
          <PolyStyle>
            <fill>0</fill>
          </PolyStyle>
        </Style>
        <Polygon>
          <outerBoundaryIs>
            <LinearRing>
              <coordinates>104.46119850979204,29.530401307638392
                104.45979947510754,29.531126582978384 104.45911198175381,29.532021561906735
                104.45601557485719,29.533208750540631 104.45567296247521,29.531622576092893
                104.45498374371185,29.528428247145619 104.45188793912411,29.526032254919244
                104.45085616687837,29.523342089267761 104.44879267661572,29.519455284090984
                104.44865253795619,29.51714393688043 104.44844933801801,29.51378090089916
                104.44530216963909,29.512453103288603 104.44323898622225,29.511851388772989
                104.44083248764501,29.511399156600724 104.4387697293019,29.510051109254807
                104.43722286639627,29.507211707252996 104.43601949261397,29.50496970417743
                104.43447267890596,29.505266154223925 104.43223925916055,29.505560703788849
                104.42948960191595,29.505855772603212 104.42691241588248,29.506599184249033
                104.42450765566143,29.507493011375477 104.4222752906266,29.507938456396452
                104.420557409625,29.50823566056097 104.41798135442947,29.508830150367714
                104.41609279013092,29.509276495491594 104.41462547657216,29.509579339108651
                104.41479741752849,29.51152064303599 104.41514039966025,29.513313131877894
                104.41617055100791,29.514956188813908 104.41737281337339,29.51645049272263
                104.41805996688198,29.517944435180311 104.41805989910782,29.519436826054278
                104.41926226109588,29.521230119974103 104.42132313442171,29.522426537951272
                104.4233832296316,29.523324266793377 104.42595987521364,29.524820542676917
                104.42836570441121,29.526166952913634 104.42922439167045,29.5273625898216
                104.42905212454062,29.529901359189772 104.42853656452307,29.532438694665288
                104.42802106462295,29.533930456516497 104.42750552906537,29.536467827227
                104.42699003423564,29.538408446908107 104.42698995289766,29.540199762040228
                104.42784957074875,29.54169425653318 104.42888037253965,29.543188007257008
                104.43025452230766,29.545131101757882 104.43094211418678,29.546475542426425
                104.43162871302859,29.548118892935538 104.43369081555701,29.549315459313267
                104.43592539318699,29.548871084984448 104.43901936586778,29.547532710607719
                104.44245918721039,29.547987686978381 104.44211552546088,29.551419783932968
                104.44073941255037,29.554403197467778 104.4393644364084,29.556192128626769
                104.43833296170682,29.55857850200444 104.43902075933437,29.560967822376789
                104.44022332742125,29.562462387862283 104.44263078696427,29.562466752243786
                104.44658503028548,29.561728661226805 104.44950802312427,29.561734678279567
                104.44968026756364,29.56307856673077 104.44847607458678,29.565016361231287
                104.44710066406208,29.566654968145876 104.44778775466926,29.568148848835051
                104.44806119363346,29.568742205374566 104.44847586544563,29.569642751020783
                104.44985118695446,29.571585969845724 104.45053931209223,29.573975623007431
                104.45053925138521,29.575319167178002 104.45122745514212,29.576365299918326
                104.45122738771613,29.577857797981434 104.45122734052018,29.578902448658681
                104.45329115649318,29.579802698552037 104.45329108911213,29.581295202876507
                104.45157077630978,29.583230763070166 104.4505388197086,29.584870992710389
                104.4495069235079,29.586062408306798 104.44847504873606,29.587701718332635
                104.44744321449036,29.58934106837318 104.44675500321111,29.590683245103737
                104.44606781907294,29.591875490439744 104.44503613124658,29.59247027019169
                104.4438322825135,29.591722186899247 104.44073772124086,29.591716474996403
                104.43661226320437,29.592156299299095 104.43661216156397,29.594394591967291
                104.43678419001682,29.59842461309589 104.43695634273642,29.599767478707147
                104.43729970434842,29.601260584493186 104.43747187372337,29.602304549659554
                104.43856819325599,29.604397754242878 104.43966171070196,29.603202001444963
                104.44034767748566,29.60269836127388 104.44118085646775,29.602594881798364
                104.44200603732483,29.602859303390176 104.44293437300669,29.603757750742005
                104.44278714266979,29.603964413080199 104.44289128292574,29.604306504150454
                104.44455785846812,29.603929786586082 104.44504461683289,29.604144666157449
                104.44529596004435,29.605417772810824 104.44612128352021,29.605657330541707
                104.44786618268586,29.605889788149909 104.44869058879593,29.606136417952669
                104.45094754724872,29.607328848822569 104.45598303604726,29.610408229970609
                104.45680768743247,29.610645087388935 104.46029795040475,29.611029357061646
                104.46282342751257,29.611654457223949 104.46633939541448,29.611739461959406
                104.46805839983385,29.612044898985442 104.46893547862092,29.612039237061815
                104.46978652264244,29.611852575266248 104.47068869220024,29.611990972844069
                104.47153074541286,29.611878297584585 104.47212121546791,29.611332073311999
                104.47357092167799,29.60852090174555 104.47405715953623,29.607900436611171
                104.47478600324253,29.607453601327233 104.4755760056285,29.607121912435446
                104.47809344813096,29.606429241661655 104.47894464690673,29.606268720897685
                104.48069820461733,29.60612380694733 104.4824087025696,29.60576087550621
                104.48561124276864,29.604528625910337 104.48634020910453,29.604087909241471
                104.48694785948916,29.603540871211496 104.48731286904457,29.602838165196111
                104.48756357442039,29.602104131794256 104.48806799439269,29.600631078692786
                104.48912689781258,29.599426596286147 104.48995218372089,29.598068473967508
                104.49032522243111,29.597373802347771 104.49081962414297,29.595895739092985
                104.49082874981114,29.59359549011549 104.49044681806066,29.591321072391452
                104.49048996907392,29.590555444912958 104.49071564569218,29.589031607227533
                104.4916101294187,29.587597741926082 104.49161018931736,29.586245180045299
                104.49108881846838,29.585340916165329 104.49031676132884,29.584660833565231
                104.49031677129638,29.584435907617223 104.49005606700771,29.584433131212418
                104.48979537297838,29.584207428110044 104.4885109422186,29.583534827123589
                104.48747819741477,29.582855985947802 104.48669613161083,29.582184893101601
                104.48593315268333,29.580829088747482 104.48593220945024,29.579474536549846
                104.48567255711413,29.578572071971813 104.48567073253673,29.574510434068046
                104.48695534453971,29.570456611843216 104.48717294464375,29.570083384254747
                104.48639990628402,29.569373344058285 104.48562685836228,29.569020186249602
                104.48139071137838,29.56793718005644 104.48060968654946,29.567600038146491
                104.48006329107234,29.567012667909928 104.48001921149726,29.566217818347734
                104.48039321420856,29.565543131228054 104.48214587345235,29.563817812417831
                104.48418131446397,29.5622653027295 104.48611352163776,29.560792508718471
                104.4866339390688,29.560191259506887 104.48688564548959,29.55945126864113
                104.48697291306114,29.558685800814317 104.4868777940756,29.555608628581673
                104.48714654552188,29.554887685364275 104.48777124555032,29.554340735428315
                104.4884741534451,29.553891985240504 104.48927332052703,29.553551485004782
                104.49008953356307,29.553276017283956 104.49179917223395,29.552922251926585
                104.49266752909467,29.552806892979461 104.49617404857733,29.552756430869159
                104.49792768602455,29.552845561660956 104.49640387026032,29.548271775291386
                104.49519868254043,29.546327880603833 104.49416598511824,29.543935679326985
                104.4921005226043,29.540794681059722 104.48664395697614,29.537769601250957
                104.48526746978294,29.53358516146718 104.48113661127479,29.532677456809743
                104.48216943590019,29.529993506044633 104.48216962168054,29.52581216569568
                104.48148191125254,29.523720007409615 104.48079317829675,29.522224617240944
                104.48010442549541,29.521326992751156 104.47976055958732,29.520728246229535
                104.47735133346664,29.521319123667716 104.47678296303792,29.519548232406777
                104.47523399823973,29.520589448622534 104.47334121898533,29.521778696783606
                104.47213616862253,29.523566656193562 104.46989967251753,29.525053978087378
                104.47528587061471,29.526390260679243 104.47597351281175,29.528482360796346
                104.47390829008114,29.529372233619661 104.47046685962223,29.529063915429052
                104.46874674013704,29.529059292035086 104.46324004416844,29.529343841623664
                104.46119850979204,29.530401307638392</coordinates>
            </LinearRing>
          </outerBoundaryIs>
        </Polygon>
      </Placemark>
    </Folder>
  </Document>
</kml>